{
  "type": "FeatureCollection",
  "name": "points",
  "crs": {"type": "name", "properties": {"name": "urn:ogc:def:crs:OGC:1.3:CRS84"}},
  "features": [
    {"type": "Feature", "properties": {"event_id": 1, "longitude": 0.5, "latitude": 0.5}, "geometry": {"type": "Point", "coordinates": [0.5, 0.5]}},
    {"type": "Feature", "properties": {"event_id": 2, "longitude": 1.5, "latitude": 0.5}, "geometry": {"type": "Point", "coordinates": [1.5, 0.5]}},
    {"type": "Feature", "properties": {"event_id": 3, "longitude": 3.0, "latitude": 3.0}, "geometry": {"type": "Point", "coordinates": [3.0, 3.0]}}
  ]
}
